OBJECT_NAME,OBJECT_ID,EPOCH,MEAN_MOTION,ECCENTRICITY,INCLINATION,RA_OF_ASC_NODE,ARG_OF_PERICENTER,MEAN_ANOMALY,EPHEMERIS_TYPE,CLASSIFICATION_TYPE,NORAD_CAT_ID,ELEMENT_SET_NO,REV_AT_EPOCH,BSTAR,MEAN_MOTION_DOT,MEAN_MOTION_DDOT
SAPPHIRE,2013-009C,2026-07-06T19:42:52.873056,14.35245912,.0011055,98.4271,6.8118,184.4155,175.6935,0,U,39088,999,69939,.44255E-4,.84E-6,0
PRAETORIAN SDA_602,2025-203A,2026-07-06T13:01:03.576000,13.83887497,.0006807,81.3035,352.8452,137.6804,222.4878,0,U,65565,999,4137,.63172E-4,.82E-6,0
PRAETORIAN SDA_603,2025-203B,2026-07-06T13:42:27.332352,13.83961125,.001044,81.3042,352.7410,136.0539,224.1450,0,U,65566,999,4138,.12198E-3,.147E-5,0
PRAETORIAN SDA_604,2025-203C,2026-07-06T17:56:43.048608,13.83049638,.0006286,81.3059,353.0198,140.8291,219.3321,0,U,65567,999,4138,.55255E-4,.72E-6,0
PRAETORIAN SDA_605,2025-203D,2026-07-02T20:59:13.896096,13.83435094,.0008905,81.3021,356.2472,142.0754,218.1031,0,U,65568,999,4086,.92536E-5,.22E-6,0
PRAETORIAN SDA_606,2025-203E,2026-07-06T20:06:57.875904,13.83199618,.0006925,81.3060,352.8167,135.3979,224.7735,0,U,65569,999,4140,.48937E-4,.66E-6,0
PRAETORIAN SDA_607,2025-203F,2026-07-06T18:13:48.684000,13.83758017,.0009708,81.3043,352.5182,135.0924,225.1019,0,U,65570,999,4141,.15226E-3,.18E-5,0
PRAETORIAN SDA_608,2025-203G,2026-07-06T17:49:10.905312,13.83818905,.0006794,81.3012,352.7015,140.0822,220.0835,0,U,65571,999,4139,.53538E-4,.71E-6,0
PRAETORIAN SDA_609,2025-203H,2026-07-06T17:48:16.560576,13.84211328,.000771,81.3055,352.6816,134.6573,225.5213,0,U,65572,999,4140,.16494E-3,.196E-5,0
PRAETORIAN SDA_610,2025-203J,2026-07-06T17:21:00.091008,13.83769214,.0007561,81.3013,352.6793,139.5092,220.6629,0,U,65573,999,4139,.29756E-4,.45E-6,0
PRAETORIAN SDA_611,2025-203K,2026-07-06T17:31:28.390080,13.83310652,.0006358,81.3024,352.8514,143.2794,216.8799,0,U,65574,999,4138,.17847E-4,.32E-6,0
PRAETORIAN SDA_612,2025-203L,2026-07-06T20:09:26.966880,13.85040234,.0010052,81.3034,352.2886,135.3204,224.8765,0,U,65575,999,4143,.18704E-3,.224E-5,0
PRAETORIAN SDA_613,2025-203M,2026-07-06T17:52:14.805984,13.82767189,.0006526,81.3005,352.8507,134.3866,225.7826,0,U,65576,999,4138,.60985E-4,.78E-6,0
PRAETORIAN SDA_614,2025-203N,2026-07-06T13:03:01.863648,13.84777991,.0007953,81.3010,352.6457,133.9919,226.1895,0,U,65577,999,4139,-.13984E-4,-.4E-7,0
PRAETORIAN SDA_615,2025-203P,2026-07-06T17:48:49.282848,13.84438164,.0009965,81.3029,352.4383,134.3757,225.8218,0,U,65578,999,4141,.16884E-3,.201E-5,0
PRAETORIAN SDA_616,2025-203Q,2026-07-06T14:02:51.925344,13.83269614,.0006255,81.3069,353.1438,141.9592,218.2007,0,U,65579,999,4136,.9694E-4,.118E-5,0
PRAETORIAN SDA_617,2025-203R,2026-07-06T18:04:41.569824,13.83151473,.0008241,81.3042,352.8181,133.6627,226.5214,0,U,65580,999,4139,.39749E-4,.55E-6,0
PRAETORIAN SDA_618,2025-203S,2026-07-06T13:31:45.357888,13.84220996,.0010765,81.3030,352.5334,141.2917,218.9013,0,U,65581,999,4139,.15205E-3,.182E-5,0
PRAETORIAN SDA_619,2025-203T,2026-07-06T18:04:29.745120,13.83805905,.0009058,81.3052,352.6781,134.7392,225.4504,0,U,65582,999,4203,.22907E-3,.266E-5,0
PRAETORIAN SDA_620,2025-203U,2026-07-06T13:37:30.010944,13.83304256,.0008484,81.3035,352.8752,132.5486,227.6388,0,U,65583,999,4137,.14718E-3,.174E-5,0
PRAETORIAN SDA_621,2025-203V,2026-07-06T18:07:07.491648,13.83803537,.0008294,81.3026,352.6105,128.8928,231.2970,0,U,65584,999,4140,.71834E-4,.91E-6,0
PRAETORIAN SDA_601,2025-203W,2026-07-06T17:37:43.845600,13.83170589,.0006387,81.3055,352.9486,143.6389,216.5202,0,U,65585,999,4138,.10969E-3,.132E-5,0
VICTUS HAZE PUMA,2026-142A,2026-07-06T19:45:43.500096,15.20804641,.0025296,97.4477,85.2238,296.9909,62.8744,0,U,69646,999,265,.18306E-4,.335E-5,0
