SAPPHIRE                
1 39088U 13009C   26187.82144529  .00000084  00000+0  44255-4 0  9995
2 39088  98.4271   6.8118 0011055 184.4155 175.6935 14.35245912699393
PRAETORIAN SDA_602      
1 65565U 25203A   26187.54240250  .00000082  00000+0  63172-4 0  9997
2 65565  81.3035 352.8452 0006807 137.6804 222.4878 13.83887497 41374
PRAETORIAN SDA_603      
1 65566U 25203B   26187.57114968  .00000147  00000+0  12198-3 0  9990
2 65566  81.3042 352.7410 0010440 136.0539 224.1450 13.83961125 41389
PRAETORIAN SDA_604      
1 65567U 25203C   26187.74772047  .00000072  00000+0  55255-4 0  9997
2 65567  81.3059 353.0198 0006286 140.8291 219.3321 13.83049638 41385
PRAETORIAN SDA_605      
1 65568U 25203D   26183.87446639  .00000022  00000+0  92536-5 0  9992
2 65568  81.3021 356.2472 0008905 142.0754 218.1031 13.83435094 40865
PRAETORIAN SDA_606      
1 65569U 25203E   26187.83816986  .00000066  00000+0  48937-4 0  9992
2 65569  81.3060 352.8167 0006925 135.3979 224.7735 13.83199618 41400
PRAETORIAN SDA_607      
1 65570U 25203F   26187.75959125  .00000180  00000+0  15226-3 0  9999
2 65570  81.3043 352.5182 0009708 135.0924 225.1019 13.83758017 41411
PRAETORIAN SDA_608      
1 65571U 25203G   26187.74248733  .00000071  00000+0  53538-4 0  9993
2 65571  81.3012 352.7015 0006794 140.0822 220.0835 13.83818905 41390
PRAETORIAN SDA_609      
1 65572U 25203H   26187.74185834  .00000196  00000+0  16494-3 0  9993
2 65572  81.3055 352.6816 0007710 134.6573 225.5213 13.84211328 41406
PRAETORIAN SDA_610      
1 65573U 25203J   26187.72291772  .00000045  00000+0  29756-4 0  9990
2 65573  81.3013 352.6793 0007561 139.5092 220.6629 13.83769214 41395
PRAETORIAN SDA_611      
1 65574U 25203K   26187.73018970  .00000032  00000+0  17847-4 0  9993
2 65574  81.3024 352.8514 0006358 143.2794 216.8799 13.83310652 41387
PRAETORIAN SDA_612      
1 65575U 25203L   26187.83989545  .00000224  00000+0  18704-3 0  9995
2 65575  81.3034 352.2886 0010052 135.3204 224.8765 13.85040234 41435
PRAETORIAN SDA_613      
1 65576U 25203M   26187.74461581  .00000078  00000+0  60985-4 0  9997
2 65576  81.3005 352.8507 0006526 134.3866 225.7826 13.82767189 41388
PRAETORIAN SDA_614      
1 65577U 25203N   26187.54377157 -.00000004  00000+0 -13984-4 0  9999
2 65577  81.3010 352.6457 0007953 133.9919 226.1895 13.84777991 41392
PRAETORIAN SDA_615      
1 65578U 25203P   26187.74223707  .00000201  00000+0  16884-3 0  9991
2 65578  81.3029 352.4383 0009965 134.3757 225.8218 13.84438164 41413
PRAETORIAN SDA_616      
1 65579U 25203Q   26187.58532321  .00000118  00000+0  96940-4 0  9998
2 65579  81.3069 353.1438 0006255 141.9592 218.2007 13.83269614 41364
PRAETORIAN SDA_617      
1 65580U 25203R   26187.75325891  .00000055  00000+0  39749-4 0  9995
2 65580  81.3042 352.8181 0008241 133.6627 226.5214 13.83151473 41390
PRAETORIAN SDA_618      
1 65581U 25203S   26187.56371942  .00000182  00000+0  15205-3 0  9994
2 65581  81.3030 352.5334 0010765 141.2917 218.9013 13.84220996 41396
PRAETORIAN SDA_619      
1 65582U 25203T   26187.75312205  .00000266  00000+0  22907-3 0  9993
2 65582  81.3052 352.6781 0009058 134.7392 225.4504 13.83805905 42033
PRAETORIAN SDA_620      
1 65583U 25203U   26187.56770846  .00000174  00000+0  14718-3 0  9991
2 65583  81.3035 352.8752 0008484 132.5486 227.6388 13.83304256 41370
PRAETORIAN SDA_621      
1 65584U 25203V   26187.75494782  .00000091  00000+0  71834-4 0  9996
2 65584  81.3026 352.6105 0008294 128.8928 231.2970 13.83803537 41407
PRAETORIAN SDA_601      
1 65585U 25203W   26187.73453525  .00000132  00000+0  10969-3 0  9992
2 65585  81.3055 352.9486 0006387 143.6389 216.5202 13.83170589 41387
VICTUS HAZE PUMA        
1 69646U 26142A   26187.82342014  .00000335  00000+0  18306-4 0  9996
2 69646  97.4477  85.2238 0025296 296.9909  62.8744 15.20804641  2652
